INTELSAT 37E (IS-37E)   
1 42950U 17059A   17309.08105098 -.00000183  00000-0  00000+0 0  9995
2 42950   0.0048 245.2404 0001925 307.8224 325.2795  1.00275494   508
BSAT-4A                 
1 42951U 17059B   17308.85498179 -.00000362  00000-0  00000-0 0  9995
2 42951   0.0131 281.2074 0000779  27.9774 153.0224  1.00498625   407
VRSS-2                  
1 42954U 17060A   17309.47358579  .00000138  00000-0  27606-4 0  9993
2 42954  98.0214  22.7504 0018681 193.2923 166.7793 14.75972433  4012
IRIDIUM 133             
1 42955U 17061A   17309.37836221  .00000081  00000-0  21772-4 0  9994
2 42955  86.3969 259.7539 0001450  94.0995 266.0367 14.34216164  3885
IRIDIUM 100             
1 42956U 17061B   17309.72086183  .00000054  00000-0  12291-4 0  9994
2 42956  86.3966 259.6046 0002201  88.1221 272.0227 14.34218590  3951
IRIDIUM 122             
1 42957U 17061C   17309.47983322  .00000053  00000-0  11764-4 0  9991
2 42957  86.3967 259.6998 0001351 109.9866 250.1475 14.34217209  3904
IRIDIUM 129             
1 42958U 17061D   17309.71452100  .00000033  00000-0  46815-5 0  9998
2 42958  86.3967 259.6340 0001613  93.8369 266.3011 14.34217787  3957
IRIDIUM 119             
1 42959U 17061E   17309.40377575  .00000078  00000-0  20821-4 0  9994
2 42959  86.4035 259.7334 0004715  43.0929 317.0635 14.34304345  3924
IRIDIUM 107             
1 42960U 17061F   17309.49945077  .00000087  00000-0  17975-4 0  9999
2 42960  86.4627 259.6806 0007165 108.2324 251.9660 14.47544650  3957
IRIDIUM 132             
1 42961U 17061G   17309.70817807  .00000011  00000-0 -29612-5 0  9993
2 42961  86.3968 259.6144 0002276 100.0184 260.1268 14.34219972  3972
IRIDIUM 136             
1 42962U 17061H   17309.46441230  .00000108  00000-0  19130-4 0  9999
2 42962  86.5256 259.7153 0001295 104.7172 255.4180 14.56927004  3947
IRIDIUM 139             
1 42963U 17061J   17309.44166037  .00000116  00000-0  20974-4 0  9994
2 42963  86.5261 259.7352 0001943  77.7254 282.4172 14.56966213  3952
IRIDIUM 125             
1 42964U 17061K   17309.42142486  .00000116  00000-0  20884-4 0  9995
2 42964  86.5278 259.7482 0001492  67.4872 292.6495 14.57113305  3954
QZS-4 (MICHIBIKI-4)     
1 42965U 17062A   17306.49183372 -.00000312  00000-0  00000-0 0  9993
2 42965  40.4555  24.4480 0758318 269.8443  58.1328  1.00235339   240
H-2A R/B                
1 42966U 17062B   17307.78384298  .00002149  00000-0  16175-2 0  9998
2 42966  31.8981  15.9611 7237759 193.5872 124.1161  2.30852125   573
SES-11 (ECHOSTAR 105)   
1 42967U 17063A   17308.73170935  .00000115  00000-0  00000+0 0  9995
2 42967   0.0685 258.2483 0001554 289.1884 337.6610  1.00273135   262
FALCON 9 R/B            
1 42968U 17063B   17308.90483854  .00000902  00000-0  70027-3 0  9996
2 42968  27.9181 188.3464 7505266 190.2691 134.0904  1.97966094   486
SENTINEL-5P             
1 42969U 17064A   17308.83548098  .00000147  00000-0  90001-4 0  9998
2 42969  98.7120 246.7969 0001794 121.1422 239.0062 14.19705097  3172
BREEZE-KM R/B           
1 42970U 17064B   17309.44632583 -.00000087  00000-0  13197-5 0  9997
2 42970  98.7461 250.2381 0255174 233.6180 124.1258 14.92569005  3420
PROGRESS-MS 07          
1 42971U 17065A   17308.54862557  .00001787  00000-0  34336-4 0  9999
2 42971  51.6428  58.5952 0004347  84.5316   1.5854 15.54055325  3304
KESTREL EYE IIM (KE2M)  
1 42982U 98067NE  17305.65629569  .00008919  00000-0  13962-3 0  9990
2 42982  51.6411  72.9984 0005406  84.5747  14.7663 15.54559432  1274
SIMPL                   
1 42983U 98067NF  17309.43997387  .00005526  00000-0  89348-4 0  9990
2 42983  51.6419  54.1319 0005143  90.8547 314.2947 15.54537430  1393
KOREASAT 5A             
1 42984U 17067A   17305.45628483  .00000113  00000-0  00000-0 0  9999
2 42984  22.0450 162.7875 7893424 179.5740 182.1646  1.54414534    29
FALCON 9 R/B            
1 42985U 17067B   17306.73585288  .00000477  00000-0  25606-3 0  9992
2 42985  22.0453 162.4821 7887147 180.1035 179.4648  1.54990166    55
SKYSAT-C11              
1 42987U 17068A   17309.49329996  .00000947  00000-0  50858-4 0  9993
2 42987  97.3486  63.5611 0020349 199.6933 160.3517 15.17145122   696
SKYSAT-C10              
1 42988U 17068B   17309.49314094  .00000753  00000-0  41026-4 0  9999
2 42988  97.3485  63.5613 0020219 200.0517 159.9925 15.17196731   698
SKYSAT-C9               
1 42989U 17068C   17309.49297543  .00000819  00000-0  44265-4 0  9990
2 42989  97.3484  63.5614 0020004 200.5840 159.4590 15.17251091   699
SKYSAT-C8               
1 42990U 17068D   17309.49278451  .00000815  00000-0  44038-4 0  9993
2 42990  97.3485  63.5617 0019784 201.0255 159.0168 15.17315080   690
SKYSAT-C7               
1 42991U 17068E   17309.49259528  .00000816  00000-0  44015-4 0  9994
2 42991  97.3485  63.5621 0019608 201.8659 158.1740 15.17377608   697
SKYSAT-C6               
1 42992U 17068F   17309.49238440  .00000732  00000-0  39722-4 0  9991
2 42992  97.3483  63.5621 0019330 202.2634 157.7763 15.17447089   697
2017-068G               
1 42993U 17068G   17309.29409154  .00002598  00000-0  13195-3 0  9999
2 42993  97.3538  63.3747 0018646 203.5814 156.4567 15.17616764   662
2017-068H               
1 42994U 17068H   17309.49146853  .00000917  00000-0  48523-4 0  9993
2 42994  97.3475  63.5621 0018290 205.0604 154.9744 15.17751170   699
FLOCK 3M-1              
1 42995U 17068J   17309.49088309  .00001622  00000-0  82875-4 0  9997
2 42995  97.3416  63.5573 0017264 204.4412 155.6005 15.17949677   690
FLOCK 3M-3              
1 42996U 17068K   17309.49040508  .00001931  00000-0  97656-4 0  9993
2 42996  97.3376  63.5535 0016595 204.8734 155.1702 15.18110145   691
FLOCK 3M-4              
1 42997U 17068L   17309.29242958  .00001851  00000-0  93560-4 0  9996
2 42997  97.3587  63.3839 0016298 206.7570 153.2825 15.18189756   666
FLOCK 3M-2              
1 42998U 17068M   17309.48927577  .00001800  00000-0  90319-4 0  9998
2 42998  97.3485  63.5662 0014705 201.2322 158.8304 15.18486162   693
